NORAD_CAT_ID,OBJECT_NAME,OBJECT_TYPE,EPOCH,MEAN_MOTION,ECCENTRICITY,INCLINATION,RA_OF_ASC_NODE,ARG_OF_PERICENTER,MEAN_ANOMALY,BSTAR,MEAN_MOTION_DOT,MEAN_MOTION_DDOT,TLE_LINE0,TLE_LINE1,TLE_LINE2,SEMIMAJOR_AXIS,PERIOD,APOGEE,PERIGEE,DECAYED
53721.0,STARLINK-4707,PAYLOAD,2023-10-09 14:55:27,15.08842321,0.0001548,53.2167,253.7093,91.0401,269.0768,8.1515e-05,1.01e-05,0.0,0 STARLINK-4707,1 53721U 22107X   23282.62185160  .00001010  00000-0  81515-4 0  9992,2 53721  53.2167 253.7093 0001548  91.0401 269.0768 15.08842321 61252,6917.873,95.437,540.809,538.667,0.0
53721.0,STARLINK-4707,PAYLOAD,2023-10-10 02:03:10,15.08837957,0.0001478,53.2174,251.6274,99.4585,260.6574,2.6365e-05,1.32e-06,0.0,0 STARLINK-4707,1 53721U 22107X   23283.08553243  .00000132  00000-0  26365-4 0  9990,2 53721  53.2174 251.6274 0001478  99.4585 260.6574 15.08837957 60862,6917.887,95.438,540.774,538.729,0.0
53721.0,STARLINK-4707,PAYLOAD,2023-10-10 06:49:19,15.08848238,0.0001597,53.2173,250.7357,102.6786,257.4385,0.00025917,3.84e-05,0.0,0 STARLINK-4707,1 53721U 22107X   23283.28424918  .00003840  00000-0  25917-3 0  9998,2 53721  53.2173 250.7357 0001597 102.6786 257.4385 15.08848238 60896,6917.855,95.437,540.825,538.615,0.0
53721.0,STARLINK-4707,PAYLOAD,2023-10-10 14:46:14,15.08843996,0.0001548,53.2165,249.2495,89.3006,270.8163,0.00022235,3.253e-05,0.0,0 STARLINK-4707,1 53721U 22107X   23283.61545131  .00003253  00000-0  22235-3 0  9994,2 53721  53.2165 249.2495 0001548  89.3006 270.8163 15.08843996 60940,6917.868,95.437,540.804,538.662,0.0
53721.0,STARLINK-4707,PAYLOAD,2023-10-11 01:53:57,15.08829608,0.0002349,53.2171,247.1697,91.3175,268.8086,-6.7562e-05,-1.363e-05,0.0,0 STARLINK-4707,1 53721U 22107X   23284.07914126 -.00001363  00000-0 -67562-4 0  9994,2 53721  53.2171 247.1697 0002349  91.3175 268.8086 15.08829608 61012,6917.912,95.438,541.402,538.152,0.0
53721.0,STARLINK-4707,PAYLOAD,2023-10-11 06:40:07,15.08830629,0.0001513,53.2161,246.2766,95.1101,265.0064,1.5105e-05,-4.8e-07,0.0,0 STARLINK-4707,1 53721U 22107X   23284.27786043 -.00000048  00000-0  15105-4 0  9995,2 53721  53.2161 246.2766 0001513  95.1101 265.0064 15.08830629 61505,6917.909,95.438,540.821,538.727,0.0
53721.0,STARLINK-4707,PAYLOAD,2023-10-12 04:55:31,15.0885277,0.0001544,53.2164,242.1136,91.5835,268.5334,0.00087322,0.00013641,0.0,0 STARLINK-4707,1 53721U 22107X   23285.20522116  .00013641  00000-0  87322-3 0  9999,2 53721  53.2164 242.1136 0001544  91.5835 268.5334 15.08852770 61185,6917.841,95.437,540.774,538.638,0.0
53721.0,STARLINK-4707,PAYLOAD,2023-10-12 06:30:54,15.08858671,0.0001552,53.2164,241.8152,91.3952,268.7218,0.0010836,0.00017008,0.0,0 STARLINK-4707,1 53721U 22107X   23285.27146019  .00017008  00000-0  10836-2 0  9996,2 53721  53.2164 241.8152 0001552  91.3952 268.7218 15.08858671 61657,6917.823,95.436,540.762,538.615,0.0
53721.0,STARLINK-4707,PAYLOAD,2023-10-12 14:27:49,15.08850223,0.0001517,53.2165,240.3279,88.494,271.6226,0.00068437,0.00010624,0.0,0 STARLINK-4707,1 53721U 22107X   23285.60266180  .00010624  00000-0  68437-3 0  9993,2 53721  53.2165 240.3279 0001517  88.4940 271.6226 15.08850223 61249,6917.849,95.437,540.764,538.665,0.0
53721.0,STARLINK-4707,PAYLOAD,2023-10-13 03:10:54,15.08848304,0.0001056,53.216,237.9501,87.1589,272.9524,0.00048026,7.365e-05,0.0,0 STARLINK-4707,1 53721U 22107X   23286.13258014  .00007365  00000-0  48026-3 0  9999,2 53721  53.2160 237.9501 0001056  87.1589 272.9524 15.08848304 61328,6917.855,95.437,540.451,538.989,0.0
53721.0,STARLINK-4707,PAYLOAD,2023-10-13 14:18:36,15.0885427,0.0002023,53.2173,235.8671,96.4709,263.6513,0.00088948,0.00013902,0.0,0 STARLINK-4707,1 53721U 22107X   23286.59626121  .00013902  00000-0  88948-3 0  9998,2 53721  53.2173 235.8671 0002023  96.4709 263.6513 15.08854270 61851,6917.837,95.437,541.101,538.302,0.0
53721.0,STARLINK-4707,PAYLOAD,2023-10-14 06:12:27,15.08876348,0.0001732,53.2175,232.8923,110.4394,249.6784,0.0011964,0.00018823,0.0,0 STARLINK-4707,1 53721U 22107X   23287.25864965  .00018823  00000-0  11964-2 0  9992,2 53721  53.2175 232.8923 0001732 110.4394 249.6784 15.08876348 61497,6917.769,95.435,540.832,538.436,0.0
53721.0,STARLINK-4707,PAYLOAD,2023-10-14 14:09:23,15.08835279,0.0002143,53.2178,231.4071,91.0441,269.0796,0.00028063,4.18e-05,0.0,0 STARLINK-4707,1 53721U 22107X   23287.58986023  .00004180  00000-0  28063-3 0  9998,2 53721  53.2178 231.4071 0002143  91.0441 269.0796 15.08835279 62008,6917.895,95.438,541.242,538.277,0.0
53721.0,STARLINK-4707,PAYLOAD,2023-10-14 20:30:56,15.08836712,0.0002505,53.2168,230.217,94.7522,265.3756,0.00097718,0.00015297,0.0,0 STARLINK-4707,1 53721U 22107X   23287.85482336  .00015297  00000-0  97718-3 0  9990,2 53721  53.2168 230.2170 0002505  94.7522 265.3756 15.08836712 61586,6917.89,95.438,541.488,538.023,0.0
53721.0,STARLINK-4707,PAYLOAD,2023-10-15 02:52:29,15.08823963,0.0001654,53.2184,229.0283,108.4232,251.694,-0.00014761,-2.635e-05,0.0,0 STARLINK-4707,1 53721U 22107X   23288.11978520 -.00002635  00000-0 -14761-3 0  9996,2 53721  53.2184 229.0283 0001654 108.4232 251.6940 15.08823963 61622,6917.929,95.439,540.939,538.65,0.0
53721.0,STARLINK-4707,PAYLOAD,2023-10-15 06:03:15,15.08827524,0.0001793,53.2189,228.4327,104.1252,255.994,-5.6526e-05,-1.187e-05,0.0,0 STARLINK-4707,1 53721U 22107X   23288.25226716 -.00001187  00000-0 -56526-4 0  9991,2 53721  53.2189 228.4327 0001793 104.1252 255.9940 15.08827524 62106,6917.919,95.438,541.024,538.543,0.0
53721.0,STARLINK-4707,PAYLOAD,2023-10-16 05:54:02,15.08873811,0.0001432,53.2178,223.9751,87.4643,272.6513,0.001673,0.00026463,0.0,0 STARLINK-4707,1 53721U 22107X   23289.24586385  .00026463  00000-0  16730-2 0  9995,2 53721  53.2178 223.9751 0001432  87.4643 272.6513 15.08873811 61798,6917.777,95.435,540.633,538.651,0.0
53721.0,STARLINK-4707,PAYLOAD,2023-10-16 12:15:35,15.08865201,0.0001365,53.2177,222.7817,68.6548,291.4589,0.00092392,0.00014457,0.0,0 STARLINK-4707,1 53721U 22107X   23289.51082262  .00014457  00000-0  92392-3 0  9999,2 53721  53.2177 222.7817 0001365  68.6548 291.4589 15.08865201 61838,6917.803,95.436,540.613,538.724,0.0
53721.0,STARLINK-4707,PAYLOAD,2023-10-16 20:12:30,15.08857053,0.0002054,53.2188,221.2994,95.3454,264.7772,0.00055429,8.549e-05,0.0,0 STARLINK-4707,1 53721U 22107X   23289.84202451  .00008549  00000-0  55429-3 0  9994,2 53721  53.2188 221.2994 0002054  95.3454 264.7772 15.08857053 62349,6917.828,95.436,541.114,538.272,0.0
53721.0,STARLINK-4707,PAYLOAD,2023-10-17 12:06:22,15.08844843,0.0001004,53.2176,218.3248,84.2395,275.8711,0.00045412,6.948e-05,0.0,0 STARLINK-4707,1 53721U 22107X   23290.50442523  .00006948  00000-0  45412-3 0  9997,2 53721  53.2176 218.3248 0001004  84.2395 275.8711 15.08844843 61988,6917.866,95.437,540.425,539.036,0.0
53721.0,STARLINK-4707,PAYLOAD,2023-10-18 02:24:50,15.08859329,0.0001306,53.2169,215.65,94.3517,265.7624,0.001964,0.00031124,0.0,0 STARLINK-4707,1 53721U 22107X   23291.10058487  .00031124  00000-0  19640-2 0  9993,2 53721  53.2169 215.6500 0001306  94.3517 265.7624 15.08859329 62532,6917.821,95.436,540.59,538.783,0.0
53721.0,STARLINK-4707,PAYLOAD,2023-10-18 19:54:05,15.08846947,0.0001264,53.2158,212.3786,90.2291,269.8846,0.0015433,0.00024364,0.0,0 STARLINK-4707,1 53721U 22107X   23291.82922622  .00024364  00000-0  15433-2 0  9997,2 53721  53.2158 212.3786 0001264  90.2291 269.8846 15.08846947 62181,6917.859,95.437,540.599,538.85,0.0
53721.0,STARLINK-4707,PAYLOAD,2023-10-19 03:51:00,15.08862742,0.0001365,53.216,210.8914,81.4792,278.6355,0.0025239,0.00040134,0.0,0 STARLINK-4707,1 53721U 22107X   23292.16042430  .00040134  00000-0  25239-2 0  9993,2 53721  53.2160 210.8914 0001365  81.4792 278.6355 15.08862742 62690,6917.811,95.436,540.62,538.732,0.0
53721.0,STARLINK-4707,PAYLOAD,2023-10-20 03:41:46,15.08874931,0.000132,53.2158,206.4313,98.0012,262.113,0.0016037,0.00025352,0.0,0 STARLINK-4707,1 53721U 22107X   23293.15401616  .00025352  00000-0  16037-2 0  9999,2 53721  53.2158 206.4313 0001320  98.0012 262.1130 15.08874931 62389,6917.774,95.435,540.552,538.725,0.0
53721.0,STARLINK-4707,PAYLOAD,2023-10-20 18:00:16,15.08825013,0.0001199,53.2177,203.7529,111.6643,248.4477,0.001142,0.00017926,0.0,0 STARLINK-4707,1 53721U 22107X   23293.75018686  .00017926  00000-0  11420-2 0  9995,2 53721  53.2177 203.7529 0001199 111.6643 248.4477 15.08825013 62473,6917.926,95.439,540.621,538.962,0.0
53721.0,STARLINK-4707,PAYLOAD,2023-10-21 11:29:30,15.08841298,0.000158,53.2169,200.4828,95.292,264.8252,0.00085703,0.00013378,0.0,0 STARLINK-4707,1 53721U 22107X   23294.47883083  .00013378  00000-0  85703-3 0  9999,2 53721  53.2169 200.4828 0001580  95.2920 264.8252 15.08841298 63049,6917.876,95.437,540.834,538.648,0.0
53721.0,STARLINK-4707,PAYLOAD,2023-10-21 22:37:12,15.08873133,0.0001611,53.2163,198.4031,79.8046,280.3127,0.0012401,0.00019521,0.0,0 STARLINK-4707,1 53721U 22107X   23294.94250264  .00019521  00000-0  12401-2 0  9990,2 53721  53.2163 198.4031 0001611  79.8046 280.3127 15.08873133 63112,6917.779,95.435,540.759,538.53,0.0
53721.0,STARLINK-4707,PAYLOAD,2023-10-22 03:23:21,15.08886227,0.0001556,53.2164,197.5099,87.1757,272.9413,0.0011856,0.00018655,0.0,0 STARLINK-4707,1 53721U 22107X   23295.14121534  .00018655  00000-0  11856-2 0  9990,2 53721  53.2164 197.5099 0001556  87.1757 272.9413 15.08886227 62680,6917.739,95.435,540.68,538.528,0.0
53721.0,STARLINK-4707,PAYLOAD,2023-10-22 22:28:00,15.08824071,0.0001518,53.2163,193.942,93.6047,266.5119,0.0012126,0.00019055,0.0,0 STARLINK-4707,1 53721U 22107X   23295.93611234  .00019055  00000-0  12126-2 0  9994,2 53721  53.2163 193.9420 0001518  93.6047 266.5119 15.08824071 63265,6917.929,95.439,540.844,538.744,0.0
53721.0,STARLINK-4707,PAYLOAD,2023-10-23 04:49:33,15.08814964,0.0001812,53.2165,192.7525,75.8424,284.2769,0.0011337,0.00017789,0.0,0 STARLINK-4707,1 53721U 22107X   23296.20107947  .00017789  00000-0  11337-2 0  9991,2 53721  53.2165 192.7525 0001812  75.8424 284.2769 15.08814964 62849,6917.957,95.439,541.075,538.568,0.0
